OBJECT_NAME,OBJECT_ID,EPOCH,MEAN_MOTION,ECCENTRICITY,INCLINATION,RA_OF_ASC_NODE,ARG_OF_PERICENTER,MEAN_ANOMALY,EPHEMERIS_TYPE,CLASSIFICATION_TYPE,NORAD_CAT_ID,ELEMENT_SET_NO,REV_AT_EPOCH,BSTAR,MEAN_MOTION_DOT,MEAN_MOTION_DDOT
STARLINK-33695,2025-070U,2026-06-10T02:34:17.461056,15.27601748,.0000485,43.0091,94.1218,189.6660,170.4183,0,U,63478,999,6715,.95981239E-3,.26261E-3,0
STARLINK-33713,2025-070V,2026-06-10T02:39:51.081696,15.27586290,.00005573,43.0068,94.1461,247.2338,112.8455,0,U,63479,999,6715,.56715761E-3,.1538E-3,0
STARLINK-33721,2025-070W,2026-06-10T02:43:31.869120,15.27586866,.00012416,43.0007,94.1664,264.2624,95.8086,0,U,63480,999,6715,.16531942E-3,.4291E-4,0
STARLINK-33639,2025-070X,2026-06-09T13:03:52.805088,15.27594903,.00027573,43.0026,97.6320,267.5593,92.4943,0,U,63481,999,6706,.54250808E-3,.14704E-3,0
STARLINK-33688,2025-070Z,2026-06-09T13:14:19.279392,15.27580178,.00009534,43.0039,101.1568,287.4127,72.6620,0,U,63483,999,6702,.55081348E-3,.14926E-3,0
STARLINK-33700,2025-070AA,2026-06-10T02:53:56.974848,15.27596002,.00005354,43.0074,97.6892,237.9535,122.1265,0,U,63484,999,6711,.71477737E-3,.19468E-3,0
STARLINK-33687,2025-070AB,2026-06-09T12:29:53.413440,15.27585197,.00012167,43.0000,100.8783,282.2346,77.8369,0,U,63485,999,6702,.6234514E-3,.16936E-3,0
STARLINK-33716,2025-070AC,2026-06-10T02:44:41.360640,15.27605273,.00004431,43.0047,97.6483,200.9043,159.1791,0,U,63486,999,6711,.61449027E-3,.16699E-3,0
STARLINK-33754,2025-070AD,2026-06-10T03:14:18.157632,15.27609565,.0001032,43.0165,97.7946,67.2115,292.8846,0,U,63487,999,6711,.69554003E-3,.18943E-3,0
STARLINK-33828,2025-071A,2026-06-10T01:07:27.751872,15.35389714,.00011556,53.1594,69.2820,100.6391,259.4742,0,U,63493,999,6691,.74827032E-3,.25801E-3,0
STARLINK-33819,2025-071B,2026-06-10T00:49:03.631584,15.42152542,.00010314,53.1577,69.1945,80.9733,279.1390,0,U,63494,999,6691,.11925871E-2,.51823E-3,0
STARLINK-33845,2025-071C,2026-06-09T23:45:03.347712,15.30239723,.00012752,53.1580,71.0445,82.7902,277.3244,0,U,63495,999,6688,.1107478E-2,.32626E-3,0
STARLINK-33829,2025-071D,2026-06-10T01:41:53.363328,15.30221353,.00015466,53.1612,70.8402,84.0963,276.0214,0,U,63496,999,6685,.58598103E-3,.17047E-3,0
STARLINK-33815,2025-071E,2026-06-10T01:35:54.893184,15.31716503,.00010933,53.1590,70.8147,92.3235,267.7892,0,U,63497,999,6691,.77850598E-3,.23883E-3,0
STARLINK-33833,2025-071F,2026-06-10T06:00:02.999808,15.31666085,.00011116,53.1603,70.0595,84.8254,155.8130,0,U,63498,999,566,.18755304E-2,.58228E-3,0
STARLINK-33534,2025-071G,2026-06-10T00:48:51.532992,15.31726344,.00010947,53.1583,70.6116,81.4907,278.6218,0,U,63499,999,6689,.66710166E-3,.20409E-3,0
STARLINK-33838,2025-071H,2026-06-10T06:07:20.164800,15.30220256,.00012519,53.1584,69.8552,99.7695,260.3447,0,U,63500,999,6673,.69875684E-3,.20406E-3,0
STARLINK-33837,2025-071J,2026-06-10T05:03:59.433120,15.31725690,.00012348,53.1603,70.2940,90.6490,269.4653,0,U,63501,999,6687,.80216721E-3,.24629E-3,0
STARLINK-33818,2025-071K,2026-06-10T01:20:38.891616,15.30196319,.00012681,53.1588,70.7421,71.1605,288.9533,0,U,63502,999,6691,.12073304E-2,.35566E-3,0
STARLINK-33583,2025-071L,2026-06-09T23:37:11.927712,15.49341749,.00011918,53.1596,69.5788,90.3274,269.7871,0,U,63503,999,6693,.81964862E-3,.45455E-3,0
STARLINK-33811,2025-071M,2026-06-10T00:50:22.734240,15.30183393,.00012597,53.1582,71.3218,80.4995,279.6148,0,U,63504,999,6684,.57827564E-3,.16798E-3,0
STARLINK-33825,2025-071N,2026-06-10T01:06:56.873376,15.30189469,.00010056,53.1586,70.6843,111.2589,248.8519,0,U,63505,999,6691,.50733774E-3,.14692E-3,0
STARLINK-33792,2025-071P,2026-06-10T01:13:01.163424,15.30206724,.00015408,53.1587,70.7131,102.9016,257.2157,0,U,63506,999,6686,.3342877E-3,.9556E-4,0
STARLINK-33843,2025-071Q,2026-06-10T01:40:21.702432,15.30210026,.00014186,53.1607,70.7940,90.0655,270.0508,0,U,63507,999,6689,.35988724E-3,.10318E-3,0
STARLINK-33809,2025-071R,2026-06-10T01:23:39.344064,15.30225579,.00011763,53.1582,70.7232,95.5872,264.5263,0,U,63508,999,6685,.68729665E-3,.20068E-3,0
STARLINK-33678,2025-071S,2026-06-10T00:42:07.822080,15.31722752,.00011353,53.1583,70.5450,77.9125,282.2004,0,U,63509,999,6664,.67904427E-3,.2078E-3,0
STARLINK-33764,2025-071T,2026-06-10T00:54:56.227392,15.30214491,.00010799,53.1580,71.3051,89.0087,271.1038,0,U,63510,999,6688,.4947063E-3,.14327E-3,0
STARLINK-33804,2025-071U,2026-06-10T01:29:11.073408,15.31720325,.00010329,53.1600,70.7485,87.8369,272.2750,0,U,63511,999,6654,.95219837E-3,.29318E-3,0
STARLINK-33751,2025-071V,2026-06-10T01:15:44.328960,15.31723125,.00013898,53.1600,70.6871,60.8534,299.2607,0,U,63512,999,6689,.6084231E-3,.18576E-3,0
STARLINK-33750,2025-071W,2026-06-10T01:02:17.604384,15.31716407,.00014078,53.1593,70.6338,103.3977,256.7182,0,U,63513,999,6689,.68847059E-3,.2107E-3,0
