STARLINK-33695          
1 63478U 25070U   26161.10714654  .00026261  00000+0  95981-3 0  9997
2 63478  43.0091  94.1218 0000485 189.6660 170.4183 15.27601748 67159
STARLINK-33713          
1 63479U 25070V   26161.11100789  .00015380  00000+0  56716-3 0  9990
2 63479  43.0068  94.1461 0000557 247.2338 112.8455 15.27586290 67153
STARLINK-33721          
1 63480U 25070W   26161.11356330  .00004291  00000+0  16532-3 0  9998
2 63480  43.0007  94.1664 0001241 264.2624  95.8086 15.27586866 67150
STARLINK-33639          
1 63481U 25070X   26160.54436117  .00014704  00000+0  54251-3 0  9997
2 63481  43.0026  97.6320 0002757 267.5593  92.4943 15.27594903 67069
STARLINK-33688          
1 63483U 25070Z   26160.55161203  .00014926  00000+0  55081-3 0  9999
2 63483  43.0039 101.1568 0000953 287.4127  72.6620 15.27580178 67027
STARLINK-33700          
1 63484U 25070AA  26161.12079832  .00019468  00000+0  71478-3 0  9994
2 63484  43.0074  97.6892 0000535 237.9535 122.1265 15.27596002 67114
STARLINK-33687          
1 63485U 25070AB  26160.52075710  .00016936  00000+0  62345-3 0  9999
2 63485  43.0000 100.8783 0001216 282.2346  77.8369 15.27585197 67024
STARLINK-33716          
1 63486U 25070AC  26161.11436760  .00016699  00000+0  61449-3 0  9992
2 63486  43.0047  97.6483 0000443 200.9043 159.1791 15.27605273 67119
STARLINK-33754          
1 63487U 25070AD  26161.13493238  .00018943  00000+0  69554-3 0  9997
2 63487  43.0165  97.7946 0001032  67.2115 292.8846 15.27609565 67119
STARLINK-33828          
1 63493U 25071A   26161.04684898  .00025801  00000+0  74827-3 0  9999
2 63493  53.1594  69.2820 0001155 100.6391 259.4742 15.35389714 66914
STARLINK-33819          
1 63494U 25071B   26161.03406981  .00051823  00000+0  11926-2 0  9997
2 63494  53.1577  69.1945 0001031  80.9733 279.1390 15.42152542 66919
STARLINK-33845          
1 63495U 25071C   26160.98962208  .00032626  00000+0  11075-2 0  9995
2 63495  53.1580  71.0445 0001275  82.7902 277.3244 15.30239723 66887
STARLINK-33829          
1 63496U 25071D   26161.07075652  .00017047  00000+0  58598-3 0  9997
2 63496  53.1612  70.8402 0001546  84.0963 276.0214 15.30221353 66857
STARLINK-33815          
1 63497U 25071E   26161.06660756  .00023883  00000+0  77851-3 0  9990
2 63497  53.1590  70.8147 0001093  92.3235 267.7892 15.31716503 66913
STARLINK-33833          
1 63498U 25071F   26161.25003472  .00058228  00000+0  18755-2 0  9996
2 63498  53.1603  70.0595 0001111  84.8254 155.8130 15.31666085  5662
STARLINK-33534          
1 63499U 25071G   26161.03392978  .00020409  00000+0  66710-3 0  9990
2 63499  53.1583  70.6116 0001094  81.4907 278.6218 15.31726344 66891
STARLINK-33838          
1 63500U 25071H   26161.25509450  .00020406  00000+0  69876-3 0  9995
2 63500  53.1584  69.8552 0001251  99.7695 260.3447 15.30220256 66735
STARLINK-33837          
1 63501U 25071J   26161.21110455  .00024629  00000+0  80217-3 0  9998
2 63501  53.1603  70.2940 0001234  90.6490 269.4653 15.31725690 66876
STARLINK-33818          
1 63502U 25071K   26161.05600569  .00035566  00000+0  12073-2 0  9997
2 63502  53.1588  70.7421 0001268  71.1605 288.9533 15.30196319 66914
STARLINK-33583          
1 63503U 25071L   26160.98416583  .00045455  00000+0  81965-3 0  9995
2 63503  53.1596  69.5788 0001191  90.3274 269.7871 15.49341749 66939
STARLINK-33811          
1 63504U 25071M   26161.03498535  .00016798  00000+0  57828-3 0  9999
2 63504  53.1582  71.3218 0001259  80.4995 279.6148 15.30183393 66845
STARLINK-33825          
1 63505U 25071N   26161.04649159  .00014692  00000+0  50734-3 0  9991
2 63505  53.1586  70.6843 0001005 111.2589 248.8519 15.30189469 66915
STARLINK-33792          
1 63506U 25071P   26161.05070791  .00009556  00000+0  33429-3 0  9998
2 63506  53.1587  70.7131 0001540 102.9016 257.2157 15.30206724 66864
STARLINK-33843          
1 63507U 25071Q   26161.06969563  .00010318  00000+0  35989-3 0  9995
2 63507  53.1607  70.7940 0001418  90.0655 270.0508 15.30210026 66892
STARLINK-33809          
1 63508U 25071R   26161.05809426  .00020068  00000+0  68730-3 0  9999
2 63508  53.1582  70.7232 0001176  95.5872 264.5263 15.30225579 66852
STARLINK-33678          
1 63509U 25071S   26161.02925720  .00020780  00000+0  67904-3 0  9996
2 63509  53.1583  70.5450 0001135  77.9125 282.2004 15.31722752 66647
STARLINK-33764          
1 63510U 25071T   26161.03815078  .00014327  00000+0  49471-3 0  9992
2 63510  53.1580  71.3051 0001079  89.0087 271.1038 15.30214491 66885
STARLINK-33804          
1 63511U 25071U   26161.06193372  .00029318  00000+0  95220-3 0  9991
2 63511  53.1600  70.7485 0001032  87.8369 272.2750 15.31720325 66546
STARLINK-33751          
1 63512U 25071V   26161.05259640  .00018576  00000+0  60842-3 0  9998
2 63512  53.1600  70.6871 0001389  60.8534 299.2607 15.31723125 66894
STARLINK-33750          
1 63513U 25071W   26161.04325931  .00021070  00000+0  68847-3 0  9991
2 63513  53.1593  70.6338 0001407 103.3977 256.7182 15.31716407 66890
